1 40105U 14045A   26109.71756110  .00000024  00000-0  00000+0 0  9995
2 40105  55.3154  90.7927 0031557 119.3213 240.9788  2.00554446 84909
1 40105U 14045A   26110.21616216  .00000023  00000-0  00000+0 0  9993
2 40105  55.3158  90.7728 0031563 119.3074 240.9919  2.00554473 84911
1 40105U 14045A   26110.21616217  .00000023  00000-0  00000-0 0  9995
2 40105  55.3158  90.7729 0031563 119.3074 240.9919  2.00554473 84912
1 40105U 14045A   26110.71476378  .00000023  00000-0  00000-0 0  9992
2 40105  55.3161  90.7530 0031565 119.3122 240.9867  2.00554490 84924
1 40105U 14045A   26111.21336613  .00000024  00000-0  00000+0 0  9995
2 40105  55.3165  90.7332 0031583 119.2795 241.0198  2.00554541 84930
1 40105U 14045A   26111.21336614  .00000024  00000-0  00000-0 0  9997
2 40105  55.3165  90.7332 0031583 119.2795 241.0198  2.00554541 84930
1 40105U 14045A   26111.71196880  .00000025  00000-0  00000+0 0  9991
2 40105  55.3168  90.7133 0031582 119.2863 241.0135  2.00554557 84946
1 40105U 14045A   26111.71196882  .00000025  00000-0  00000-0 0  9994
2 40105  55.3168  90.7133 0031585 119.2711 241.0287  2.00554571 84945
1 40105U 14045A   26111.71196882  .00000025  00000-0  00000+0 0  9993
2 40105  55.3168  90.7133 0031585 119.2711 241.0287  2.00554571 84945
1 40105U 14045A   26112.21057191  .00000027  00000-0  00000-0 0  9991
2 40105  55.3172  90.6934 0031589 119.2637 241.0371  2.00554601 84958
1 40105U 14045A   26112.21057194  .00000027  00000-0  00000+0 0  9993
2 40105  55.3172  90.6935 0031596 119.2545 241.0464  2.00554610 84958
1 40105U 14045A   26112.21057195  .00000027  00000-0  00000-0 0  9995
2 40105  55.3172  90.6935 0031596 119.2545 241.0464  2.00554610 84958
1 40105U 14045A   26113.20777852  .00000031  00000-0  00000-0 0  9999
2 40105  55.3179  90.6538 0031607 119.2245 241.0786  2.00554679 84978
1 40105U 14045A   26113.20777852  .00000031  00000-0  00000-0 0  9999
2 40105  55.3179  90.6538 0031607 119.2245 241.0786  2.00554679 84978
1 40105U 14045A   26114.20498424  .00000034  00000-0  00000-0 0  9998
2 40105  55.3185  90.6141 0031628 119.1965 241.1086  2.00554768 84991
1 40105U 14045A   26114.20498424  .00000034  00000-0  00000+0 0  9997
2 40105  55.3185  90.6141 0031628 119.1964 241.1086  2.00554768 84990
1 40105U 14045A   26115.20218808  .00000035  00000-0  00000-0 0  9996
2 40105  55.3192  90.5744 0031646 119.1673 241.1386  2.00554849 85010
1 40105U 14045A   26115.20218808  .00000035  00000-0  00000+0 0  9995
2 40105  55.3192  90.5744 0031646 119.1673 241.1386  2.00554849 85010
1 40105U 14045A   26116.19938925  .00000031  00000-0  00000-0 0  9990
2 40105  55.3199  90.5347 0031664 119.1386 241.1664  2.00554931 85030
1 40105U 14045A   26116.19938925  .00000031  00000-0  00000+0 0  9999
2 40105  55.3199  90.5347 0031664 119.1386 241.1664  2.00554931 85030
1 40105U 14045A   26117.19658757  .00000024  00000-0  00000-0 0  9995
2 40105  55.3206  90.4949 0031672 119.1316 241.1707  2.00554999 85052
1 40105U 14045A   26117.19658757  .00000024  00000-0  00000+0 0  9994
2 40105  55.3206  90.4949 0031672 119.1316 241.1707  2.00554999 85052
1 40105U 14045A   26117.19658772  .00000024  00000-0  00000+0 0  9991
2 40105  55.3206  90.4949 0031683 119.1157 241.1868  2.00555017 85057
1 40105U 14045A   26117.19658773  .00000024  00000-0  00000-0 0  9993
2 40105  55.3206  90.4949 0031683 119.1157 241.1868  2.00555017 85057
1 40105U 14045A   26118.19378399  .00000014  00000-0  00000+0 0  9995
2 40105  55.3213  90.4553 0031693 119.1069 241.1918  2.00555100 85070
1 40105U 14045A   26118.19378400  .00000014  00000-0  00000-0 0  9999
2 40105  55.3213  90.4553 0031693 119.1069 241.1918  2.00555100 85070
1 40105U 14045A   26118.19378400  .00000014  00000-0  00000-0 0  9999
2 40105  55.3213  90.4553 0031693 119.1069 241.1918  2.00555100 85070
1 40105U 14045A   26119.19097926  .00000004  00000-0  00000-0 0  9990
2 40105  55.3219  90.4156 0031719 119.0884 241.2062  2.00555193 85093
1 40105U 14045A   26119.19097926  .00000004  00000-0  00000-0 0  9990
2 40105  55.3219  90.4156 0031719 119.0884 241.2062  2.00555193 85093
1 40105U 14045A   26119.19097926  .00000004  00000-0  00000+0 0  9999
2 40105  55.3219  90.4156 0031719 119.0884 241.2062  2.00555193 85093
1 40105U 14045A   26119.19097933  .00000004  00000-0  00000-0 0  9998
2 40105  55.3220  90.4156 0031726 119.0888 241.2058  2.00555204 85095
1 40105U 14045A   26119.19097933  .00000004  00000-0  00000+0 0  9997
2 40105  55.3219  90.4156 0031726 119.0888 241.2058  2.00555204 85093
1 40105U 14045A   26120.68677267 -.00000009  00000-0  00000+0 0  9993
2 40105  55.3229  90.3561 0031758 119.0700 241.2188  2.00555331 85120
1 40105U 14045A   26120.68677268 -.00000009  00000-0  00000-0 0  9995
2 40105  55.3229  90.3561 0031758 119.0700 241.2188  2.00555331 85120
1 40105U 14045A   26121.18537091 -.00000012  00000-0  00000+0 0  9993
2 40105  55.3233  90.3363 0031767 119.0639 241.2235  2.00555373 85136
1 40105U 14045A   26121.68396948 -.00000013  00000-0  00000+0 0  9993
2 40105  55.3236  90.3165 0031778 119.0527 241.2335  2.00555416 85147
1 40105U 14045A   26121.68396949 -.00000013  00000-0  00000-0 0  9995
2 40105  55.3236  90.3165 0031778 119.0527 241.2335  2.00555416 85147
1 40105U 14045A   26122.68116794 -.00000013  00000-0  00000-0 0  9994
2 40105  55.3242  90.2768 0031797 119.0356 241.2495  2.00555497 85161
1 40105U 14045A   26122.68116794 -.00000013  00000-0  00000+0 0  9993
2 40105  55.3242  90.2768 0031797 119.0356 241.2495  2.00555497 85161
1 40105U 14045A   26123.17976786 -.00000011  00000-0  00000-0 0  9992
2 40105  55.3246  90.2570 0031806 119.0255 241.2596  2.00555534 85170
1 40105U 14045A   26123.17976786 -.00000011  00000-0  00000+0 0  9991
2 40105  55.3246  90.2570 0031806 119.0255 241.2596  2.00555534 85170
1 40105U 14045A   26123.67836823 -.00000009  00000-0  00000+0 0  9990
2 40105  55.3249  90.2371 0031816 119.0141 241.2714  2.00555571 85181
1 40105U 14045A   26123.67836824 -.00000009  00000-0  00000-0 0  9992
2 40105  55.3249  90.2371 0031816 119.0141 241.2714  2.00555571 85181
1 40105U 14045A   26124.17696900 -.00000005  00000-0  00000+0 0  9992
2 40105  55.3252  90.2173 0031830 118.9946 241.2918  2.00555608 85190
1 40105U 14045A   26124.17696901 -.00000005  00000-0  00000-0 0  9994
2 40105  55.3252  90.2173 0031830 118.9946 241.2918  2.00555608 85190
1 40105U 14045A   26124.67557029 -.00000001  00000-0  00000-0 0  9992
2 40105  55.3255  90.1974 0031844 118.9800 241.3076  2.00555642 85201
1 40105U 14045A   26124.67557029 -.00000001  00000-0  00000+0 0  9991
2 40105  55.3255  90.1974 0031844 118.9800 241.3076  2.00555642 85201
1 40105U 14045A   26125.17417178  .00000004  00000-0  00000+0 0  9999
2 40105  55.3259  90.1776 0031858 118.9648 241.3243  2.00555675 85213
1 40105U 14045A   26125.17417179  .00000004  00000-0  00000-0 0  9991
2 40105  55.3259  90.1776 0031858 118.9648 241.3243  2.00555675 85213
1 40105U 14045A   26125.67277388  .00000008  00000-0  00000-0 0  9996
2 40105  55.3262  90.1578 0031875 118.9411 241.3498  2.00555717 85224
1 40105U 14045A   26125.67277388  .00000008  00000-0  00000+0 0  9995
2 40105  55.3262  90.1578 0031875 118.9411 241.3498  2.00555717 85224
1 40105U 14045A   26126.17137558  .00000014  00000-0  00000+0 0  9992
2 40105  55.3265  90.1379 0031885 118.9438 241.3488  2.00555735 85236
1 40105U 14045A   26126.17137559  .00000014  00000-0  00000-0 0  9994
2 40105  55.3265  90.1379 0031885 118.9438 241.3489  2.00555735 85237
1 40105U 14045A   26126.66997771  .00000019  00000-0  00000-0 0  9993
2 40105  55.3269  90.1181 0031901 118.9304 241.3642  2.00555762 85245
1 40105U 14045A   26126.66997771  .00000019  00000-0  00000+0 0  9992
2 40105  55.3269  90.1181 0031901 118.9304 241.3642  2.00555762 85245
1 40105U 14045A   26127.16857960  .00000023  00000-0  00000-0 0  9999
2 40105  55.3272  90.0983 0031907 118.9202 241.3764  2.00555779 85255
1 40105U 14045A   26127.16857970  .00000023  00000-0  00000+0 0  9999
2 40105  55.3272  90.0983 0031917 118.9147 241.3820  2.00555789 85258
1 40105U 14045A   26127.66718094  .00000028  00000-0  00000-0 0  9993
2 40105  55.3275  90.0784 0031911 118.9316 241.3668  2.00555808 85265
1 40105U 14045A   26127.66718094  .00000028  00000-0  00000+0 0  9992
2 40105  55.3275  90.0784 0031911 118.9316 241.3668  2.00555808 85265
1 40105U 14045A   26128.16578263  .00000031  00000-0  00000-0 0  9995
2 40105  55.3278  90.0586 0031924 118.9206 241.3797  2.00555830 85279
1 40105U 14045A   26128.16578271  .00000031  00000-0  00000+0 0  9993
2 40105  55.3278  90.0586 0031931 118.9196 241.3807  2.00555839 85276
1 40105U 14045A   26128.66438392  .00000034  00000-0  00000+0 0  9990
2 40105  55.3281  90.0387 0031946 118.9058 241.3962  2.00555863 85282
1 40105U 14045A   26128.66438393  .00000034  00000-0  00000-0 0  9992
2 40105  55.3281  90.0387 0031946 118.9058 241.3962  2.00555863 85282
1 40105U 14045A   26129.16298467  .00000037  00000-0  00000-0 0  9997
2 40105  55.3284  90.0189 0031953 118.8948 241.4085  2.00555875 85291
1 40105U 14045A   26129.16298469  .00000037  00000-0  00000-0 0  9999
2 40105  55.3285  90.0189 0031955 118.8934 241.4099  2.00555879 85298
1 40105U 14045A   26129.16298469  .00000037  00000-0  00000+0 0  9998
2 40105  55.3285  90.0189 0031955 118.8934 241.4099  2.00555879 85298
1 40105U 14045A   26129.66158497  .00000039  00000-0  00000-0 0  9992
2 40105  55.3288  89.9991 0031971 118.8786 241.4257  2.00555904 85309
1 40105U 14045A   26129.66158497  .00000039  00000-0  00000+0 0  9991
2 40105  55.3288  89.9991 0031971 118.8786 241.4257  2.00555904 85309
1 40105U 14045A   26130.65878344  .00000039  00000-0  00000-0 0  9993
2 40105  55.3294  89.9594 0031994 118.8507 241.4543  2.00555944 85325
